{
  "norad_id": 52990,
  "name": "STARLINK-4286",
  "history": [
    {
      "epoch": "2026-04-14T20:16:05.587968Z",
      "apogee_km": 540.7688855093174,
      "perigee_km": 538.7599269409502,
      "latitude_deg": 4.130358863063282e-05,
      "longitude_deg": 154.7780489542093,
      "height_km": 540.6444206636672,
      "semi_major_axis_km": 6917.9014062251335,
      "eccentricity": 0.0001452,
      "inclination_deg": 53.2171,
      "raan_deg": 301.8164,
      "arg_perigee_deg": 89.1145,
      "mean_anomaly_deg": 271.0014,
      "mean_motion_rev_day": 15.08833124
    },
    {
      "epoch": "2026-04-15T18:31:29.574048Z",
      "apogee_km": 540.7193814098018,
      "perigee_km": 538.7879063420323,
      "latitude_deg": -5.432911830912921e-06,
      "longitude_deg": 175.85152532254915,
      "height_km": 540.627253827113,
      "semi_major_axis_km": 6917.890643875917,
      "eccentricity": 0.0001396,
      "inclination_deg": 53.2186,
      "raan_deg": 297.6539,
      "arg_perigee_deg": 88.6843,
      "mean_anomaly_deg": 271.4309,
      "mean_motion_rev_day": 15.08836645
    },
    {
      "epoch": "2026-04-16T12:00:44.167680Z",
      "apogee_km": 540.665685457674,
      "perigee_km": 538.8504297945528,
      "latitude_deg": 4.5793738095375394e-05,
      "longitude_deg": -90.44872345753876,
      "height_km": 540.6804195284485,
      "semi_major_axis_km": 6917.895057626113,
      "eccentricity": 0.0001312,
      "inclination_deg": 53.2186,
      "raan_deg": 294.3826,
      "arg_perigee_deg": 91.6712,
      "mean_anomaly_deg": 268.4431,
      "mean_motion_rev_day": 15.08835201
    },
    {
      "epoch": "2026-04-17T21:23:49.621920Z",
      "apogee_km": 540.6516465434197,
      "perigee_km": 538.8101101142092,
      "latitude_deg": 3.2177419510057017e-05,
      "longitude_deg": 121.16327539014372,
      "height_km": 540.6557414485221,
      "semi_major_axis_km": 6917.867878328814,
      "eccentricity": 0.0001331,
      "inclination_deg": 53.2185,
      "raan_deg": 288.1384,
      "arg_perigee_deg": 91.805,
      "mean_anomaly_deg": 268.3095,
      "mean_motion_rev_day": 15.08844093
    },
    {
      "epoch": "2026-04-18T18:03:50.886720Z",
      "apogee_km": 540.3339545692397,
      "perigee_km": 539.1994183646593,
      "latitude_deg": 6.03043451462324e-05,
      "longitude_deg": 166.44236214805952,
      "height_km": 540.7420405042101,
      "semi_major_axis_km": 6917.90368646695,
      "eccentricity": 8.2e-05,
      "inclination_deg": 53.2208,
      "raan_deg": 284.2715,
      "arg_perigee_deg": 97.9604,
      "mean_anomaly_deg": 262.1482,
      "mean_motion_rev_day": 15.08832378
    },
    {
      "epoch": "2026-04-19T17:54:37.580256Z",
      "apogee_km": 540.955964580663,
      "perigee_km": 538.5167224397419,
      "latitude_deg": 1.3596430706244651e-05,
      "longitude_deg": 163.30653718774568,
      "height_km": 540.8547900232315,
      "semi_major_axis_km": 6917.873343510202,
      "eccentricity": 0.0001763,
      "inclination_deg": 53.2192,
      "raan_deg": 279.8096,
      "arg_perigee_deg": 100.5393,
      "mean_anomaly_deg": 259.5798,
      "mean_motion_rev_day": 15.08842305
    },
    {
      "epoch": "2026-04-20T12:59:16.629216Z",
      "apogee_km": 540.7042499033541,
      "perigee_km": 538.8270078459818,
      "latitude_deg": 3.204294019529214e-05,
      "longitude_deg": -127.20634025562678,
      "height_km": 540.6560031108314,
      "semi_major_axis_km": 6917.902628874667,
      "eccentricity": 0.00013568,
      "inclination_deg": 53.2174,
      "raan_deg": 276.2429,
      "arg_perigee_deg": 89.6747,
      "mean_anomaly_deg": 270.4401,
      "mean_motion_rev_day": 15.08832724
    },
    {
      "epoch": "2026-04-21T20:46:59.726784Z",
      "apogee_km": 540.6754367639751,
      "perigee_km": 538.8892299920963,
      "latitude_deg": -5.0406992615538394e-05,
      "longitude_deg": 108.61123518643218,
      "height_km": 540.5553846985132,
      "semi_major_axis_km": 6917.919333378035,
      "eccentricity": 0.0001291,
      "inclination_deg": 53.2172,
      "raan_deg": 270.2959,
      "arg_perigee_deg": 82.1001,
      "mean_anomaly_deg": 278.0137,
      "mean_motion_rev_day": 15.08827259
    }
  ]
}